{
    "links": {
        "self": "http://www.neowsapp.com/rest/v1/neo/3836719?api_key=iIulBulltgU6a56xZRHN4H3l9WmuAYTsLGpBGhQ2"
    },
    "id": "3836719",
    "neo_reference_id": "3836719",
    "name": "(2018 XJ)",
    "designation": "2018 XJ",
    "nasa_jpl_url": "http://ssd.jpl.nasa.gov/sbdb.cgi?sstr=3836719",
    "absolute_magnitude_h": 27.9,
    "estimated_diameter": {
        "kilometers": {
            "estimated_diameter_min": 0.0069912523,
            "estimated_diameter_max": 0.0156329154
        },
        "meters": {
            "estimated_diameter_min": 6.9912523225,
            "estimated_diameter_max": 15.6329154409
        },
        "miles": {
            "estimated_diameter_min": 0.0043441614,
            "estimated_diameter_max": 0.0097138403
        },
        "feet": {
            "estimated_diameter_min": 22.9371802696,
            "estimated_diameter_max": 51.289094295
        }
    },
    "is_potentially_hazardous_asteroid": false,
    "close_approach_data": [
        {
            "close_approach_date": "2018-11-30",
            "close_approach_date_full": "2018-Nov-30 23:18",
            "epoch_date_close_approach": 1543619880000,
            "relative_velocity": {
                "kilometers_per_second": "10.7725028302",
                "kilometers_per_hour": "38781.0101885929",
                "miles_per_hour": "24097.0115807954"
            },
            "miss_distance": {
                "astronomical": "0.0148122164",
                "lunar": "5.7619521796",
                "kilometers": "2215876.023419068",
                "miles": "1376881.5141084184"
            },
            "orbiting_body": "Earth"
        }
    ],
    "orbital_data": {
        "orbit_id": "1",
        "orbit_determination_date": "2018-12-05 08:12:04",
        "first_observation_date": "2018-12-04",
        "last_observation_date": "2018-12-05",
        "data_arc_in_days": 1,
        "observations_used": 33,
        "orbit_uncertainty": "8",
        "minimum_orbit_intersection": ".00961637",
        "jupiter_tisserand_invariant": "3.337",
        "epoch_osculation": "2458457.5",
        "eccentricity": ".5919272974113264",
        "semi_major_axis": "2.292680117507919",
        "inclination": "3.897624920619771",
        "ascending_node_longitude": "74.21632660311438",
        "orbital_period": "1267.983563501122",
        "perihelion_distance": ".9355801717227742",
        "perihelion_argument": "320.7319589009726",
        "aphelion_distance": "3.649780063293064",
        "perihelion_time": "2458428.477368826577",
        "mean_anomaly": "8.239970551024449",
        "mean_motion": ".2839153521879872",
        "equinox": "J2000",
        "orbit_class": {
            "orbit_class_type": "APO",
            "orbit_class_description": "Near-Earth asteroid orbits which cross the Earth’s orbit similar to that of 1862 Apollo",
            "orbit_class_range": "a (semi-major axis) > 1.0 AU; q (perihelion) < 1.017 AU"
        }
    },
    "is_sentry_object": false
}